GPS BIIF-4              
1 39166U 13023A   26072.95476941  .00000035  00000+0  00000+0 0  9992
2 39166  54.5793 272.8513 0141786  50.0653 311.2026  2.00564183 93976
INSAT-3D                
1 39216U 13038B   26073.59411556 -.00000339  00000+0  00000+0 0  9994
2 39216   1.6801  83.7801 0001548 245.2557 186.5583  1.00276418 46133
GPS BIIF-5              
1 39533U 14008A   26072.95373021 -.00000008  00000+0  00000+0 0  9990
2 39533  53.6383 153.2055 0082642 228.6391 130.6893  2.00553744 87776
LUCH 5V                 
1 39727U 14023A   26073.68279591 -.00000266  00000+0  00000+0 0  9996
2 39727   4.8991  70.6656 0003135 297.7893 144.3232  1.00268817 43412
GPS BIIF-6              
1 39741U 14026A   26073.23128864 -.00000074  00000+0  00000+0 0  9999
2 39741  56.5417 335.2169 0039739 325.0603  34.7215  2.00568021 86632
GPS BIIF-7              
1 40105U 14045A   26073.31949591  .00000042  00000+0  00000+0 0  9997
2 40105  55.2885  92.2427 0031424 120.3235 240.0488  2.00552225 84170
GSAT0201 (GALILEO 5)    
1 40128U 14050A   26070.32154952  .00000005  00000+0  00000+0 0  9994
2 40128  48.9815 277.4406 1658807 175.5932 186.0859  1.85520170 76503
GSAT0202 (GALILEO 6)    
1 40129U 14050B   26070.57744300  .00000009  00000+0  00000+0 0  9998
2 40129  48.9971 276.5149 1659654 176.3418 185.0558  1.85520847 78676
GPS BIIF-8              
1 40294U 14068A   26073.19684733 -.00000046  00000+0  00000+0 0  9996
2 40294  56.9263  34.6146 0063249  68.1095 292.5564  2.00570456 83305
GLONASS-K 2             
1 40315U 14075A   26073.04100405  .00000000  00000+0  00000+0 0  9990
2 40315  63.6166 193.6632 0020968 206.5488 153.3288  2.13101375 87829
GPS BIIF-9              
1 40534U 15013A   26073.32863954  .00000004  00000+0  00000+0 0  9996
2 40534  53.1841 208.0995 0108772  39.8558 320.9019  2.00556995 79928
GSAT0203 (GALILEO 7)    
1 40544U 15017A   26072.59966583 -.00000084  00000+0  00000+0 0  9990
2 40544  56.8181 344.2043 0004663 298.7140  61.2673  1.70475763 67578
GSAT0204 (GALILEO 8)    
1 40545U 15017B   26068.16259097 -.00000099  00000+0  00000+0 0  9990
2 40545  56.8258 344.3432 0004133 288.3156  71.6649  1.70475628 30546
GPS BIIF-10             
1 40730U 15033A   26072.99041878  .00000035  00000+0  00000+0 0  9995
2 40730  54.0576 271.0094 0114687  29.1823 331.4807  2.00561166 78084
METEOSAT-11 (MSG-4)     
1 40732U 15034A   26073.57036880  .00000062  00000+0  00000+0 0  9990
2 40732   2.9637  71.6194 0001839 274.6277  40.5020  1.00269313  6269
GSAT0206 (GALILEO 10)   
1 40890U 15045B   26071.08432484  .00000037  00000+0  00000+0 0  9993
2 40890  54.9793 224.2827 0003542  50.5001 309.4904  1.70473824 65389
GPS BIIF-11             
1 41019U 15062A   26072.55052907 -.00000047  00000+0  00000+0 0  9999
2 41019  56.8991  34.4957 0111407 231.5460 127.4471  2.00567146 75911
